COSMOS 1933             
1 18958U 88020A   25359.94379295  .00004324  00000+0  21596-3 0  9999
2 18958  82.5138 323.8312 0006407  92.9669 267.2298 15.17217075 39048
SL-3 R/B                
1 19046U 88032B   25359.90642256  .00005437  00000+0  26149-3 0  9992
2 19046  97.5098 338.5373 0027973 128.4532 231.9219 15.18870564 40900
SL-16 R/B               
1 19120U 88039B   25359.92368752 -.00000087  00000+0 -18563-4 0  9990
2 19120  71.0128 224.5228 0019539  93.7054 266.6306 14.19599570947913
COSMOS 1953             
1 19210U 88050A   25351.75027580  .00004793  00000+0  17925-3 0  9993
2 19210  82.5093 240.5536 0013540  56.0210 304.2313 15.26995692 25270
SL-8 R/B                
1 19257U 88053B   25359.89231343  .00000250  00000+0  89410-4 0  9997
2 19257  74.0467 248.4798 0018960  87.6531 348.3000 14.38866977965984
COSMOS 1975             
1 19573U 88093A   25359.95617982  .00008079  00000+0  30618-3 0  9998
2 19573  82.5194 191.5958 0013014  71.6271 288.6381 15.26654228  8158
SL-14 R/B               
1 19574U 88093B   25359.85332931  .00000596  00000+0  66008-4 0  9995
2 19574  82.5317 111.3616 0019251 283.3844 196.7613 14.85563150990079
SL-16 R/B               
1 19650U 88102B   25359.94986047  .00000074  00000+0  61731-4 0  9993
2 19650  71.0007 306.6475 0012275 129.2490 230.9725 14.16142404916453
INTERCOSMOS 24          
1 20261U 89080A   25359.93205925  .00000727  00000+0  20468-3 0  9993
2 20261  82.6054 152.3762 1189009 103.9306 269.6675 12.59460446657510
SL-14 R/B               
1 20262U 89080C   25359.70511399  .00000325  00000+0  94609-4 0  9997
2 20262  82.5914 220.6973 1230410 353.9611   4.7716 12.50423203650908
DELTA 1 R/B             
1 20323U 89089B   25359.60785476  .00000375  00000+0  10157-3 0  9992
2 20323  97.0742 213.8054 0069088 357.9796   2.1112 14.50582425884992
ARIANE 40 R/B           
1 20443U 90005H   25359.73465053  .00000302  00000+0  10984-3 0  9993
2 20443  98.3226  57.5444 0011159  70.5477 289.6916 14.39807820882169
